FENGYUN 1C DEB          
1 31452U 99025BUQ 17345.92132209  .00000159  00000-0  11035-3 0  9996
2 31452  98.7885  25.5236 0042818 177.5683 307.6137 14.11643481549407
